STARLINK-1940
1 27552C 21009E   21325.14165977  .00010062  00000-0  67405-3 0  3255
2 27552  53.0532 217.6002 0002142  67.9053  44.5159 15.06395212    13
